[{"OBJECT_NAME":"IXPE","OBJECT_ID":"2021-121A","EPOCH":"2026-03-10T00:00:02.999808","MEAN_MOTION":15.09223379,"ECCENTRICITY":0.00072712,"INCLINATION":0.2307,"RA_OF_ASC_NODE":347.0223,"ARG_OF_PERICENTER":20.3591,"MEAN_ANOMALY":57.9535,"EPHEMERIS_TYPE":0,"CLASSIFICATION_TYPE":"U","NORAD_CAT_ID":49954,"ELEMENT_SET_NO":999,"REV_AT_EPOCH":584,"BSTAR":0.0008624183,"MEAN_MOTION_DOT":0.00015078,"MEAN_MOTION_DDOT":0},{"OBJECT_NAME":"STARLINK-4110","OBJECT_ID":"2022-083AL","EPOCH":"2026-03-09T13:14:01.449024","MEAN_MOTION":15.08845992,"ECCENTRICITY":0.00010038,"INCLINATION":53.2176,"RA_OF_ASC_NODE":164.6431,"ARG_OF_PERICENTER":89.1456,"MEAN_ANOMALY":270.9651,"EPHEMERIS_TYPE":0,"CLASSIFICATION_TYPE":"U","NORAD_CAT_ID":53166,"ELEMENT_SET_NO":999,"REV_AT_EPOCH":20134,"BSTAR":-2.997821e-6,"MEAN_MOTION_DOT":-3.35e-6,"MEAN_MOTION_DDOT":0}]
